[{"OBJECT_NAME":"STARLINK-1954","OBJECT_ID":"2021-009H","EPOCH":"2026-03-09T23:20:25.352160","MEAN_MOTION":15.30849174,"ECCENTRICITY":0.00046184,"INCLINATION":53.0574,"RA_OF_ASC_NODE":8.8654,"ARG_OF_PERICENTER":103.3293,"MEAN_ANOMALY":256.8222,"EPHEMERIS_TYPE":0,"CLASSIFICATION_TYPE":"U","NORAD_CAT_ID":47555,"ELEMENT_SET_NO":999,"REV_AT_EPOCH":28100,"BSTAR":0.0022371791,"MEAN_MOTION_DOT":0.00067883,"MEAN_MOTION_DDOT":0},{"OBJECT_NAME":"STARLINK-35570","OBJECT_ID":"2025-236E","EPOCH":"2026-03-09T07:56:43.050048","MEAN_MOTION":15.30200309,"ECCENTRICITY":0.00012741,"INCLINATION":53.1572,"RA_OF_ASC_NODE":105.2583,"ARG_OF_PERICENTER":88.6862,"MEAN_ANOMALY":271.4284,"EPHEMERIS_TYPE":0,"CLASSIFICATION_TYPE":"U","NORAD_CAT_ID":66090,"ELEMENT_SET_NO":999,"REV_AT_EPOCH":2289,"BSTAR":0.00078500439,"MEAN_MOTION_DOT":0.00022963,"MEAN_MOTION_DDOT":0}]
